[
    {
        "Altitude(m)": 558431.0873478301,
        "Argument of Periapsis(deg)": 0.0,
        "Eccentricity": 0.0,
        "Inclination(deg)": 53.0,
        "Latitude(deg)": 46.73400132783239,
        "Longitude(deg)": -42.19832665262579,
        "Mean Anomaly(deg)": 65.4545,
        "RAAN(deg)": 5.0,
        "Satellite Name": "Starlink Shell 1 26",
        "Satellite Number": 26,
        "Semi-Major Axis(m)": 6931778.249405717,
        "Time(s)": 0
    },
    {
        "Altitude(m)": 558499.5972318737,
        "Argument of Periapsis(deg)": 0.00034857847951123687,
        "Eccentricity": 0.0,
        "Inclination(deg)": 53.0,
        "Latitude(deg)": 47.03448724954089,
        "Longitude(deg)": -41.43635249408478,
        "Mean Anomaly(deg)": 66.08133120355672,
        "RAAN(deg)": 4.9994812299225275,
        "Satellite Name": "Starlink Shell 1 26",
        "Satellite Number": 26,
        "Semi-Major Axis(m)": 6931778.249405717,
        "Time(s)": 10
    },
    {
        "Altitude(m)": 558566.8886100356,
        "Argument of Periapsis(deg)": 0.0006971569590224737,
        "Eccentricity": 0.0,
        "Inclination(deg)": 53.0,
        "Latitude(deg)": 47.32926202048515,
        "Longitude(deg)": -40.66540466070006,
        "Mean Anomaly(deg)": 66.70816240711342,
        "RAAN(deg)": 4.998962459845054,
        "Satellite Name": "Starlink Shell 1 26",
        "Satellite Number": 26,
        "Semi-Major Axis(m)": 6931778.249405717,
        "Time(s)": 20
    },
    {
        "Altitude(m)": 558632.9199842481,
        "Argument of Periapsis(deg)": 0.0010457354385337105,
        "Eccentricity": 0.0,
        "Inclination(deg)": 53.0,
        "Latitude(deg)": 47.61820370510857,
        "Longitude(deg)": -39.885466849653994,
        "Mean Anomaly(deg)": 67.33499361067014,
        "RAAN(deg)": 4.998443689767582,
        "Satellite Name": "Starlink Shell 1 26",
        "Satellite Number": 26,
        "Semi-Major Axis(m)": 6931778.249405717,
        "Time(s)": 30
    },
    {
        "Altitude(m)": 558697.6507001622,
        "Argument of Periapsis(deg)": 0.0013943139180449475,
        "Eccentricity": 0.0,
        "Inclination(deg)": 53.0,
        "Latitude(deg)": 47.90118952070019,
        "Longitude(deg)": -39.09653232936963,
        "Mean Anomaly(deg)": 67.96182481422684,
        "RAAN(deg)": 4.997924919690108,
        "Satellite Name": "Starlink Shell 1 26",
        "Satellite Number": 26,
        "Semi-Major Axis(m)": 6931778.249405717,
        "Time(s)": 40
    },
    {
        "Altitude(m)": 558761.0409672498,
        "Argument of Periapsis(deg)": 0.0017428923975561844,
        "Eccentricity": 0.0,
        "Inclination(deg)": 53.0,
        "Latitude(deg)": 48.17809597835824,
        "Longitude(deg)": -38.29860550727067,
        "Mean Anomaly(deg)": 68.58865601778358,
        "RAAN(deg)": 4.997406149612636,
        "Satellite Name": "Starlink Shell 1 26",
        "Satellite Number": 26,
        "Semi-Major Axis(m)": 6931778.249405717,
        "Time(s)": 50
    },
    {
        "Altitude(m)": 558823.0518785039,
        "Argument of Periapsis(deg)": 0.002091470877067421,
        "Eccentricity": 0.0,
        "Inclination(deg)": 53.0,
        "Latitude(deg)": 48.448799035015476,
        "Longitude(deg)": -37.49170198290302,
        "Mean Anomaly(deg)": 69.21548722134028,
        "RAAN(deg)": 4.996887379535163,
        "Satellite Name": "Starlink Shell 1 26",
        "Satellite Number": 26,
        "Semi-Major Axis(m)": 6931778.249405717,
        "Time(s)": 60
    },
    {
        "Altitude(m)": 558883.6454296579,
        "Argument of Periapsis(deg)": 0.0024400493565786582,
        "Eccentricity": 0.0,
        "Inclination(deg)": 53.0,
        "Latitude(deg)": 48.71317425665621,
        "Longitude(deg)": -36.67584859584837,
        "Mean Anomaly(deg)": 69.842318424897,
        "RAAN(deg)": 4.99636860945769,
        "Satellite Name": "Starlink Shell 1 26",
        "Satellite Number": 26,
        "Semi-Major Axis(m)": 6931778.249405717,
        "Time(s)": 70
    },
    {
        "Altitude(m)": 558942.7845379626,
        "Argument of Periapsis(deg)": 0.002788627836089895,
        "Eccentricity": 0.0,
        "Inclination(deg)": 53.0,
        "Latitude(deg)": 48.971096992787906,
        "Longitude(deg)": -35.851084977573066,
        "Mean Anomaly(deg)": 70.4691496284537,
        "RAAN(deg)": 4.995849839380218,
        "Satellite Name": "Starlink Shell 1 26",
        "Satellite Number": 26,
        "Semi-Major Axis(m)": 6931778.249405717,
        "Time(s)": 80
    },
    {
        "Altitude(m)": 559000.4330604716,
        "Argument of Periapsis(deg)": 0.0031372063156011316,
        "Eccentricity": 0.0,
        "Inclination(deg)": 53.0,
        "Latitude(deg)": 49.22244256216333,
        "Longitude(deg)": -35.01746357745649,
        "Mean Anomaly(deg)": 71.09598083201043,
        "RAAN(deg)": 4.995331069302745,
        "Satellite Name": "Starlink Shell 1 26",
        "Satellite Number": 26,
        "Semi-Major Axis(m)": 6931778.249405717,
        "Time(s)": 90
    },
    {
        "Altitude(m)": 559056.5558118756,
        "Argument of Periapsis(deg)": 0.0034857847951123688,
        "Eccentricity": 0.0,
        "Inclination(deg)": 53.0,
        "Latitude(deg)": 49.46708644966345,
        "Longitude(deg)": -34.17504967158842,
        "Mean Anomaly(deg)": 71.72281203556715,
        "RAAN(deg)": 4.994812299225272,
        "Satellite Name": "Starlink Shell 1 26",
        "Satellite Number": 26,
        "Semi-Major Axis(m)": 6931778.249405717,
        "Time(s)": 100
    },
    {
        "Altitude(m)": 559111.1185818175,
        "Argument of Periapsis(deg)": 0.003834363274623606,
        "Eccentricity": 0.0,
        "Inclination(deg)": 53.0,
        "Latitude(deg)": 49.704904514162585,
        "Longitude(deg)": -33.32392286267981,
        "Mean Anomaly(deg)": 72.34964323912386,
        "RAAN(deg)": 4.994293529147799,
        "Satellite Name": "Starlink Shell 1 26",
        "Satellite Number": 26,
        "Semi-Major Axis(m)": 6931778.249405717,
        "Time(s)": 110
    },
    {
        "Altitude(m)": 559164.0881517499,
        "Argument of Periapsis(deg)": 0.004182941754134842,
        "Eccentricity": 0.0,
        "Inclination(deg)": 53.0,
        "Latitude(deg)": 49.9357732071096,
        "Longitude(deg)": -32.46417704059473,
        "Mean Anomaly(deg)": 72.97647444268057,
        "RAAN(deg)": 4.993774759070326,
        "Satellite Name": "Starlink Shell 1 26",
        "Satellite Number": 26,
        "Semi-Major Axis(m)": 6931778.249405717,
        "Time(s)": 120
    },
    {
        "Altitude(m)": 559215.432311262,
        "Argument of Periapsis(deg)": 0.004531520233646079,
        "Eccentricity": 0.0,
        "Inclination(deg)": 53.0,
        "Latitude(deg)": 50.15956980145098,
        "Longitude(deg)": -31.59592031143854,
        "Mean Anomaly(deg)": 73.60330564623729,
        "RAAN(deg)": 4.993255988992854,
        "Satellite Name": "Starlink Shell 1 26",
        "Satellite Number": 26,
        "Semi-Major Axis(m)": 6931778.249405717,
        "Time(s)": 130
    },
    {
        "Altitude(m)": 559265.1198739192,
        "Argument of Periapsis(deg)": 0.0048800987131573164,
        "Eccentricity": 0.0,
        "Inclination(deg)": 53.0,
        "Latitude(deg)": 50.37617263041564,
        "Longitude(deg)": -30.71927640299062,
        "Mean Anomaly(deg)": 74.23013684979401,
        "RAAN(deg)": 4.992737218915381,
        "Satellite Name": "Starlink Shell 1 26",
        "Satellite Number": 26,
        "Semi-Major Axis(m)": 6931778.249405717,
        "Time(s)": 140
    },
    {
        "Altitude(m)": 559313.1206925823,
        "Argument of Periapsis(deg)": 0.005228677192668553,
        "Eccentricity": 0.0,
        "Inclination(deg)": 53.0,
        "Latitude(deg)": 50.58546133557543,
        "Longitude(deg)": -29.83438451555314,
        "Mean Anomaly(deg)": 74.85696805335073,
        "RAAN(deg)": 4.9922184488379076,
        "Satellite Name": "Starlink Shell 1 26",
        "Satellite Number": 26,
        "Semi-Major Axis(m)": 6931778.249405717,
        "Time(s)": 150
    },
    {
        "Altitude(m)": 559359.4056741998,
        "Argument of Periapsis(deg)": 0.00557725567217979,
        "Eccentricity": 0.0,
        "Inclination(deg)": 53.0,
        "Latitude(deg)": 50.78731712347332,
        "Longitude(deg)": -28.941399125857814,
        "Mean Anomaly(deg)": 75.48379925690745,
        "RAAN(deg)": 4.991699678760435,
        "Satellite Name": "Starlink Shell 1 26",
        "Satellite Number": 26,
        "Semi-Major Axis(m)": 6931778.249405717,
        "Time(s)": 160
    },
    {
        "Altitude(m)": 559403.9467940857,
        "Argument of Periapsis(deg)": 0.0059258341516910265,
        "Eccentricity": 0.0,
        "Inclination(deg)": 53.0,
        "Latitude(deg)": 50.98162302999332,
        "Longitude(deg)": -28.04049125168122,
        "Mean Anomaly(deg)": 76.11063046046415,
        "RAAN(deg)": 4.991180908682963,
        "Satellite Name": "Starlink Shell 1 26",
        "Satellite Number": 26,
        "Semi-Major Axis(m)": 6931778.249405717,
        "Time(s)": 170
    },
    {
        "Altitude(m)": 559446.7171096598,
        "Argument of Periapsis(deg)": 0.006274412631202263,
        "Eccentricity": 0.0,
        "Inclination(deg)": 53.0,
        "Latitude(deg)": 51.16826419153284,
        "Longitude(deg)": -27.131848146287453,
        "Mean Anomaly(deg)": 76.73746166402087,
        "RAAN(deg)": 4.990662138605489,
        "Satellite Name": "Starlink Shell 1 26",
        "Satellite Number": 26,
        "Semi-Major Axis(m)": 6931778.249405717,
        "Time(s)": 180
    }
]